{"type": "FeatureCollection", "features": [ {"type": "Feature", "properties": {"norad_id": 46271, "name": "COSMOS 2251 DEB", "group": "cosmos-2251-debris", "lat": 3.7609093087271734, "lon": -87.02434419727105, "alt_km": 701.4619783541284, "timestamp": "2025-12-04T07:39:36.529934+00:00", "meta": {"OBJECT_NAME": "COSMOS 2251 DEB", "OBJECT_ID": "1993-036BWT", "EPOCH": "2025-12-02T01:54:44.684640", "MEAN_MOTION": 14.51374966, "ECCENTRICITY": 0.00407046, "INCLINATION": 74.046, "RA_OF_ASC_NODE": 98.2636, "ARG_OF_PERICENTER": 221.9387, "MEAN_ANOMALY": 137.8656, "EPHEMERIS_TYPE": 0, "CLASSIFICATION_TYPE": "U", "NORAD_CAT_ID": 46271, "ELEMENT_SET_NO": 999, "REV_AT_EPOCH": 84487, "BSTAR": 0.0004698569, "MEAN_MOTION_DOT": 1.865e-05, "MEAN_MOTION_DDOT": 0}, "tle": {"line1": "1 46271U 93036BWT 25336.07968385  .00001865  00000+0  46986-3 0  9991", "line2": "2 46271  74.0460  98.2636 0040704 221.9387 137.8656 14.51374966844877"}}, "geometry": {"type": "Point", "coordinates": [-87.02434419727105, 3.7609093087271734]}}, {"type": "Feature", "properties": {"norad_id": 46430, "name": "COSMOS 2251 DEB", "group": "cosmos-2251-debris", "lat": -62.01375157490682, "lon": -134.79762005842016, "alt_km": 678.8418835055654, "timestamp": "2025-12-04T07:39:36.529943+00:00", "meta": {"OBJECT_NAME": "COSMOS 2251 DEB", "OBJECT_ID": "1993-036BWU", "EPOCH": "2025-12-03T09:00:26.936928", "MEAN_MOTION": 14.51043928, "ECCENTRICITY": 0.01031866, "INCLINATION": 73.9151, "RA_OF_ASC_NODE": 14.104, "ARG_OF_PERICENTER": 295.9829, "MEAN_ANOMALY": 63.073, "EPHEMERIS_TYPE": 0, "CLASSIFICATION_TYPE": "U", "NORAD_CAT_ID": 46430, "ELEMENT_SET_NO": 999, "REV_AT_EPOCH": 79547, "BSTAR": 0.0030362826, "MEAN_MOTION_DOT": 0.00012872, "MEAN_MOTION_DDOT": 0}, "tle": {"line1": "1 46430U 93036BWU 25337.37531177  .00012872  00000+0  30363-2 0  9998", "line2": "2 46430  73.9151  14.1040 0103186 295.9829  63.0730 14.51043928795476"}}, "geometry": {"type": "Point", "coordinates": [-134.79762005842016, -62.01375157490682]}}, {"type": "Feature", "properties": {"norad_id": 46432, "name": "COSMOS 2251 DEB", "group": "cosmos-2251-debris", "lat": -60.304358258803894, "lon": -24.944426456156762, "alt_km": 773.5899319242872, "timestamp": "2025-12-04T07:39:36.529952+00:00", "meta": {"OBJECT_NAME": "COSMOS 2251 DEB", "OBJECT_ID": "1993-036BWW", "EPOCH": "2025-11-27T18:14:15.472320", "MEAN_MOTION": 13.36590206, "ECCENTRICITY": 0.04736106, "INCLINATION": 73.8709, "RA_OF_ASC_NODE": 134.8972, "ARG_OF_PERICENTER": 254.8276, "MEAN_ANOMALY": 119.6249, "EPHEMERIS_TYPE": 0, "CLASSIFICATION_TYPE": "U", "NORAD_CAT_ID": 46432, "ELEMENT_SET_NO": 999, "REV_AT_EPOCH": 66766, "BSTAR": 0.00093134132, "MEAN_MOTION_DOT": 8.92e-06, "MEAN_MOTION_DDOT": 0}, "tle": {"line1": "1 46432U 93036BWW 25331.75990130  .00000892  00000+0  93134-3 0  9999", "line2": "2 46432  73.8709 134.8972 0473610 254.8276 119.6249 13.36590206667662"}}, "geometry": {"type": "Point", "coordinates": [-24.944426456156762, -60.304358258803894]}}, {"type": "Feature", "properties": {"norad_id": 47045, "name": "COSMOS 2251 DEB", "group": "cosmos-2251-debris", "lat": 65.55832353603492, "lon": -156.35173234167155, "alt_km": 767.4916365716545, "timestamp": "2025-12-04T07:39:36.529961+00:00", "meta": {"OBJECT_NAME": "COSMOS 2251 DEB", "OBJECT_ID": "1993-036BWZ", "EPOCH": "2025-12-03T07:08:12.151968", "MEAN_MOTION": 14.38891608, "ECCENTRICITY": 0.0030084, "INCLINATION": 74.0566, "RA_OF_ASC_NODE": 166.5562, "ARG_OF_PERICENTER": 309.0569, "MEAN_ANOMALY": 231.0781, "EPHEMERIS_TYPE": 0, "CLASSIFICATION_TYPE": "U", "NORAD_CAT_ID": 47045, "ELEMENT_SET_NO": 999, "REV_AT_EPOCH": 7669, "BSTAR": 0.00011844, "MEAN_MOTION_DOT": 3.4e-06, "MEAN_MOTION_DDOT": 0}, "tle": {"line1": "1 47045U 93036BWZ 25337.29736287  .00000340  00000+0  11844-3 0  9992", "line2": "2 47045  74.0566 166.5562 0030084 309.0569 231.0781 14.38891608 76696"}}, "geometry": {"type": "Point", "coordinates": [-156.35173234167155, 65.55832353603492]}}, {"type": "Feature", "properties": {"norad_id": 47048, "name": "COSMOS 2251 DEB", "group": "cosmos-2251-debris", "lat": -44.20586286807151, "lon": -41.10988751151452, "alt_km": 805.4743676490889, "timestamp": "2025-12-04T07:39:36.529971+00:00", "meta": {"OBJECT_NAME": "COSMOS 2251 DEB", "OBJECT_ID": "1993-036BXC", "EPOCH": "2025-12-03T17:48:22.555008", "MEAN_MOTION": 14.5216533, "ECCENTRICITY": 0.01336427, "INCLINATION": 73.9783, "RA_OF_ASC_NODE": 336.2112, "ARG_OF_PERICENTER": 166.2459, "MEAN_ANOMALY": 10.0271, "EPHEMERIS_TYPE": 0, "CLASSIFICATION_TYPE": "U", "NORAD_CAT_ID": 47048, "ELEMENT_SET_NO": 999, "REV_AT_EPOCH": 59559, "BSTAR": 0.0015282129, "MEAN_MOTION_DOT": 6.94e-05, "MEAN_MOTION_DDOT": 0}, "tle": {"line1": "1 47048U 93036BXC 25337.74192772  .00006940  00000+0  15282-2 0  9991", "line2": "2 47048  73.9783 336.2112 0133642 166.2459  10.0271 14.52165330595596"}}, "geometry": {"type": "Point", "coordinates": [-41.10988751151452, -44.20586286807151]}}, {"type": "Feature", "properties": {"norad_id": 47051, "name": "COSMOS 2251 DEB", "group": "cosmos-2251-debris", "lat": -22.239808606260222, "lon": -169.34204756359313, "alt_km": 783.6851059022401, "timestamp": "2025-12-04T07:39:36.529979+00:00", "meta": {"OBJECT_NAME": "COSMOS 2251 DEB", "OBJECT_ID": "1993-036BXF", "EPOCH": "2025-12-01T21:55:10.667424", "MEAN_MOTION": 13.67061051, "ECCENTRICITY": 0.03413205, "INCLINATION": 74.1012, "RA_OF_ASC_NODE": 201.2803, "ARG_OF_PERICENTER": 317.1785, "MEAN_ANOMALY": 62.4119, "EPHEMERIS_TYPE": 0, "CLASSIFICATION_TYPE": "U", "NORAD_CAT_ID": 47051, "ELEMENT_SET_NO": 999, "REV_AT_EPOCH": 59790, "BSTAR": 0.0015947644, "MEAN_MOTION_DOT": 1.973e-05, "MEAN_MOTION_DDOT": 0}, "tle": {"line1": "1 47051U 93036BXF 25335.91331791  .00001973  00000+0  15948-2 0  9998", "line2": "2 47051  74.1012 201.2803 0341320 317.1785  62.4119 13.67061051597908"}}, "geometry": {"type": "Point", "coordinates": [-169.34204756359313, -22.239808606260222]}}, {"type": "Feature", "properties": {"norad_id": 47052, "name": "COSMOS 2251 DEB", "group": "cosmos-2251-debris", "lat": 49.95848406473185, "lon": 155.8664245420081, "alt_km": 744.5215413418973, "timestamp": "2025-12-04T07:39:36.530008+00:00", "meta": {"OBJECT_NAME": "COSMOS 2251 DEB", "OBJECT_ID": "1993-036BXG", "EPOCH": "2025-11-29T08:23:30.956640", "MEAN_MOTION": 14.35450474, "ECCENTRICITY": 0.00577024, "INCLINATION": 74.0487, "RA_OF_ASC_NODE": 4.8695, "ARG_OF_PERICENTER": 82.9608, "MEAN_ANOMALY": 293.3927, "EPHEMERIS_TYPE": 0, "CLASSIFICATION_TYPE": "U", "NORAD_CAT_ID": 47052, "ELEMENT_SET_NO": 999, "REV_AT_EPOCH": 61597, "BSTAR": 0.00022809202, "MEAN_MOTION_DOT": 6.42e-06, "MEAN_MOTION_DDOT": 0}, "tle": {"line1": "1 47052U 93036BXG 25333.34966385  .00000642  00000+0  22809-3 0  9994", "line2": "2 47052  74.0487   4.8695 0057702  82.9608 293.3927 14.35450474615976"}}, "geometry": {"type": "Point", "coordinates": [155.8664245420081, 49.95848406473185]}}, {"type": "Feature", "properties": {"norad_id": 47053, "name": "COSMOS 2251 DEB", "group": "cosmos-2251-debris", "lat": 30.18659927109875, "lon": -82.74497259560925, "alt_km": 855.4401675461913, "timestamp": "2025-12-04T07:39:36.530017+00:00", "meta": {"OBJECT_NAME": "COSMOS 2251 DEB", "OBJECT_ID": "1993-036BXH", "EPOCH": "2025-12-02T02:37:04.787616", "MEAN_MOTION": 13.59615746, "ECCENTRICITY": 0.03758539, "INCLINATION": 74.0601, "RA_OF_ASC_NODE": 271.2609, "ARG_OF_PERICENTER": 87.2254, "MEAN_ANOMALY": 294.2026, "EPHEMERIS_TYPE": 0, "CLASSIFICATION_TYPE": "U", "NORAD_CAT_ID": 47053, "ELEMENT_SET_NO": 999, "REV_AT_EPOCH": 28744, "BSTAR": 0.0013831144, "MEAN_MOTION_DOT": 1.616e-05, "MEAN_MOTION_DDOT": 0}, "tle": {"line1": "1 47053U 93036BXH 25336.10908319  .00001616  00000+0  13831-2 0  9991", "line2": "2 47053  74.0601 271.2609 0375853  87.2254 294.2026 13.59615746287442"}}, "geometry": {"type": "Point", "coordinates": [-82.74497259560925, 30.18659927109875]}}, {"type": "Feature", "properties": {"norad_id": 47059, "name": "COSMOS 2251 DEB", "group": "cosmos-2251-debris", "lat": -48.09326321632147, "lon": -125.74973175585403, "alt_km": 541.4024547849322, "timestamp": "2025-12-04T07:39:36.530026+00:00", "meta": {"OBJECT_NAME": "COSMOS 2251 DEB", "OBJECT_ID": "1993-036BXP", "EPOCH": "2025-11-30T02:15:08.813664", "MEAN_MOTION": 15.10829083, "ECCENTRICITY": 0.00120344, "INCLINATION": 73.9823, "RA_OF_ASC_NODE": 261.6801, "ARG_OF_PERICENTER": 69.4658, "MEAN_ANOMALY": 304.3449, "EPHEMERIS_TYPE": 0, "CLASSIFICATION_TYPE": "U", "NORAD_CAT_ID": 47059, "ELEMENT_SET_NO": 999, "REV_AT_EPOCH": 8114, "BSTAR": 0.003761596, "MEAN_MOTION_DOT": 0.00063166, "MEAN_MOTION_DDOT": 0}, "tle": {"line1": "1 47059U 93036BXP 25334.09385201  .00063166  00000+0  37616-2 0  9997", "line2": "2 47059  73.9823 261.6801 0012034  69.4658 304.3449 15.10829083 81149"}}, "geometry": {"type": "Point", "coordinates": [-125.74973175585403, -48.09326321632147]}}, {"type": "Feature", "properties": {"norad_id": 47062, "name": "COSMOS 2251 DEB", "group": "cosmos-2251-debris", "lat": -71.63478218555869, "lon": 32.81237143175742, "alt_km": 874.1347100380663, "timestamp": "2025-12-04T07:39:36.530036+00:00", "meta": {"OBJECT_NAME": "COSMOS 2251 DEB", "OBJECT_ID": "1993-036BXS", "EPOCH": "2025-11-30T14:51:43.416000", "MEAN_MOTION": 13.71861812, "ECCENTRICITY": 0.0323451, "INCLINATION": 74.0848, "RA_OF_ASC_NODE": 98.1641, "ARG_OF_PERICENTER": 226.4501, "MEAN_ANOMALY": 143.6726, "EPHEMERIS_TYPE": 0, "CLASSIFICATION_TYPE": "U", "NORAD_CAT_ID": 47062, "ELEMENT_SET_NO": 999, "REV_AT_EPOCH": 55436, "BSTAR": 0.002328, "MEAN_MOTION_DOT": 3.04e-05, "MEAN_MOTION_DDOT": 0}, "tle": {"line1": "1 47062U 93036BXS 25334.61925250  .00003040  00000+0  23280-2 0  9990", "line2": "2 47062  74.0848  98.1641 0323451 226.4501 143.6726 13.71861812554369"}}, "geometry": {"type": "Point", "coordinates": [32.81237143175742, -71.63478218555869]}}]}